{
  "type": "FeatureCollection",
  "features": [
    {
      "type": "Feature",
      "properties": {
        "norad_id": 66954,
        "name": "HULIANWANG DIGUI-115",
        "group": "last-30-days",
        "lat": -54.80897946319977,
        "lon": 166.98576862129718,
        "alt_km": 1015.7113837169891,
        "timestamp": "2025-12-24T03:53:28.363719+00:00",
        "meta_object_name": "HULIANWANG DIGUI-115",
        "meta_object_id": "2025-287B",
        "meta_epoch": "2025-12-20T14:23:56.755680",
        "meta_mean_motion": 13.66603826,
        "meta_eccentricity": 0.00094984,
        "meta_inclination": 86.4975,
        "meta_ra_of_asc_node": 343.2967,
        "meta_arg_of_pericenter": 182.0064,
        "meta_mean_anomaly": 178.1058,
        "meta_ephemeris_type": 0,
        "meta_classification_type": "U",
        "meta_norad_cat_id": 66954,
        "meta_element_set_no": 999,
        "meta_rev_at_epoch": 160,
        "meta_bstar": -9.79328e-07,
        "meta_mean_motion_dot": 1.6e-07,
        "meta_mean_motion_ddot": 0,
        "tle_line1": "1 66954U 25287B   25354.59996245  .00000016  00000+0 -97933-6 0  9996",
        "tle_line2": "2 66954  86.4975 343.2967 0009498 182.0064 178.1058 13.66603826  1604"
      },
      "geometry": {
        "type": "Point",
        "coordinates": [
          166.98576862129718,
          -54.80897946319977
        ]
      }
    },
    {
      "type": "Feature",
      "properties": {
        "norad_id": 66955,
        "name": "HULIANWANG DIGUI-116",
        "group": "last-30-days",
        "lat": -66.23874287827549,
        "lon": 169.99520128349207,
        "alt_km": 1016.7816889288843,
        "timestamp": "2025-12-24T03:53:28.363729+00:00",
        "meta_object_name": "HULIANWANG DIGUI-116",
        "meta_object_id": "2025-287C",
        "meta_epoch": "2025-12-20T16:07:29.631072",
        "meta_mean_motion": 13.67009251,
        "meta_eccentricity": 0.00086607,
        "meta_inclination": 86.4918,
        "meta_ra_of_asc_node": 343.2556,
        "meta_arg_of_pericenter": 174.268,
        "meta_mean_anomaly": 185.8579,
        "meta_ephemeris_type": 0,
        "meta_classification_type": "U",
        "meta_norad_cat_id": 66955,
        "meta_element_set_no": 999,
        "meta_rev_at_epoch": 161,
        "meta_bstar": 0.00012368885,
        "meta_mean_motion_dot": 1.2e-06,
        "meta_mean_motion_ddot": 0,
        "tle_line1": "1 66955U 25287C   25354.67187073  .00000120  00000+0  12369-3 0  9999",
        "tle_line2": "2 66955  86.4918 343.2556 0008660 174.2680 185.8579 13.67009251  1610"
      },
      "geometry": {
        "type": "Point",
        "coordinates": [
          169.99520128349207,
          -66.23874287827549
        ]
      }
    },
    {
      "type": "Feature",
      "properties": {
        "norad_id": 66956,
        "name": "HULIANWANG DIGUI-117",
        "group": "last-30-days",
        "lat": -83.99609571495247,
        "lon": -162.3850162698315,
        "alt_km": 1016.5011279367309,
        "timestamp": "2025-12-24T03:53:28.363740+00:00",
        "meta_object_name": "HULIANWANG DIGUI-117",
        "meta_object_id": "2025-287D",
        "meta_epoch": "2025-12-18T14:55:12.079776",
        "meta_mean_motion": 13.67770338,
        "meta_eccentricity": 0.00076767,
        "meta_inclination": 86.4971,
        "meta_ra_of_asc_node": 344.0126,
        "meta_arg_of_pericenter": 176.3616,
        "meta_mean_anomaly": 183.76,
        "meta_ephemeris_type": 0,
        "meta_classification_type": "U",
        "meta_norad_cat_id": 66956,
        "meta_element_set_no": 999,
        "meta_rev_at_epoch": 133,
        "meta_bstar": 1.0922436e-05,
        "meta_mean_motion_dot": 2.6e-07,
        "meta_mean_motion_ddot": 0,
        "tle_line1": "1 66956U 25287D   25352.62166759  .00000026  00000+0  10922-4 0  9990",
        "tle_line2": "2 66956  86.4971 344.0126 0007676 176.3616 183.7600 13.67770338  1332"
      },
      "geometry": {
        "type": "Point",
        "coordinates": [
          -162.3850162698315,
          -83.99609571495247
        ]
      }
    },
    {
      "type": "Feature",
      "properties": {
        "norad_id": 66957,
        "name": "HULIANWANG DIGUI-118",
        "group": "last-30-days",
        "lat": -85.13625537143488,
        "lon": -151.9264307038487,
        "alt_km": 1017.0146861373441,
        "timestamp": "2025-12-24T03:53:28.363750+00:00",
        "meta_object_name": "HULIANWANG DIGUI-118",
        "meta_object_id": "2025-287E",
        "meta_epoch": "2025-12-21T00:50:13.849728",
        "meta_mean_motion": 13.6751011,
        "meta_eccentricity": 0.00054729,
        "meta_inclination": 86.4946,
        "meta_ra_of_asc_node": 343.1304,
        "meta_arg_of_pericenter": 170.9065,
        "meta_mean_anomaly": 189.2194,
        "meta_ephemeris_type": 0,
        "meta_classification_type": "U",
        "meta_norad_cat_id": 66957,
        "meta_element_set_no": 999,
        "meta_rev_at_epoch": 166,
        "meta_bstar": 0.00013223305,
        "meta_mean_motion_dot": 1.28e-06,
        "meta_mean_motion_ddot": 0,
        "tle_line1": "1 66957U 25287E   25355.03488252  .00000128  00000+0  13223-3 0  9993",
        "tle_line2": "2 66957  86.4946 343.1304 0005472 170.9065 189.2194 13.67510110  1668"
      },
      "geometry": {
        "type": "Point",
        "coordinates": [
          -151.9264307038487,
          -85.13625537143488
        ]
      }
    },
    {
      "type": "Feature",
      "properties": {
        "norad_id": 66958,
        "name": "CZ-6A R/B",
        "group": "last-30-days",
        "lat": -86.4766273625224,
        "lon": -101.06889562628155,
        "alt_km": 990.8833612294793,
        "timestamp": "2025-12-24T03:53:28.363762+00:00",
        "meta_object_name": "CZ-6A R/B",
        "meta_object_id": "2025-287F",
        "meta_epoch": "2025-12-23T05:56:34.073376",
        "meta_mean_motion": 13.94921301,
        "meta_eccentricity": 0.0107186,
        "meta_inclination": 86.5063,
        "meta_ra_of_asc_node": 342.1059,
        "meta_arg_of_pericenter": 70.5679,
        "meta_mean_anomaly": 290.704,
        "meta_ephemeris_type": 0,
        "meta_classification_type": "U",
        "meta_norad_cat_id": 66958,
        "meta_element_set_no": 999,
        "meta_rev_at_epoch": 200,
        "meta_bstar": 3.8039872e-05,
        "meta_mean_motion_dot": 7.2e-07,
        "meta_mean_motion_ddot": 0,
        "tle_line1": "1 66958U 25287F   25357.24761659  .00000072  00000+0  38040-4 0  9997",
        "tle_line2": "2 66958  86.5063 342.1059 0107186  70.5679 290.7040 13.94921301  2002"
      },
      "geometry": {
        "type": "Point",
        "coordinates": [
          -101.06889562628155,
          -86.4766273625224
        ]
      }
    },
    {
      "type": "Feature",
      "properties": {
        "norad_id": 66959,
        "name": "STARLINK-35887",
        "group": "last-30-days",
        "lat": -42.471592810309424,
        "lon": -3.3561265149298403,
        "alt_km": 360.6693701803433,
        "timestamp": "2025-12-24T03:53:28.363773+00:00",
        "meta_object_name": "STARLINK-35887",
        "meta_object_id": "2025-288A",
        "meta_epoch": "2025-12-23T20:00:01.000224",
        "meta_mean_motion": 15.71557835,
        "meta_eccentricity": 0.000124,
        "meta_inclination": 43.0003,
        "meta_ra_of_asc_node": 99.401,
        "meta_arg_of_pericenter": 284.5571,
        "meta_mean_anomaly": 275.9012,
        "meta_ephemeris_type": 0,
        "meta_classification_type": "U",
        "meta_norad_cat_id": 66959,
        "meta_element_set_no": 999,
        "meta_rev_at_epoch": 361,
        "meta_bstar": -0.016181,
        "meta_mean_motion_dot": -0.0186315,
        "meta_mean_motion_ddot": 0,
        "tle_line1": "1 66959U 25288A   25357.83334491 -.01863150  00000+0 -16181-1 0  9990",
        "tle_line2": "2 66959  43.0003  99.4010 0001240 284.5571 275.9012 15.71557835  3612"
      },
      "geometry": {
        "type": "Point",
        "coordinates": [
          -3.3561265149298403,
          -42.471592810309424
        ]
      }
    },
    {
      "type": "Feature",
      "properties": {
        "norad_id": 66960,
        "name": "STARLINK-35879",
        "group": "last-30-days",
        "lat": -42.68762350487125,
        "lon": -0.7650225774975442,
        "alt_km": 360.68637979563937,
        "timestamp": "2025-12-24T03:53:28.363783+00:00",
        "meta_object_name": "STARLINK-35879",
        "meta_object_id": "2025-288B",
        "meta_epoch": "2025-12-23T20:00:01.000224",
        "meta_mean_motion": 15.71573232,
        "meta_eccentricity": 0.0001186,
        "meta_inclination": 43.0004,
        "meta_ra_of_asc_node": 99.396,
        "meta_arg_of_pericenter": 280.6789,
        "meta_mean_anomaly": 281.7001,
        "meta_ephemeris_type": 0,
        "meta_classification_type": "U",
        "meta_norad_cat_id": 66960,
        "meta_element_set_no": 999,
        "meta_rev_at_epoch": 361,
        "meta_bstar": -0.016456,
        "meta_mean_motion_dot": -0.01930269,
        "meta_mean_motion_ddot": 0,
        "tle_line1": "1 66960U 25288B   25357.83334491 -.01930269  00000+0 -16456-1 0  9993",
        "tle_line2": "2 66960  43.0004  99.3960 0001186 280.6789 281.7001 15.71573232  3617"
      },
      "geometry": {
        "type": "Point",
        "coordinates": [
          -0.7650225774975442,
          -42.68762350487125
        ]
      }
    }
  ]
}